UNKNOWN                 
1 84188U          26077.25218338  .00099499  00000+0  50774-1 0  9996
2 84188  64.8828 170.1312 3493071   7.5034 356.6444  8.07578713 48794
UNKNOWN                 
1 84232U          26078.19419500  .00034874  00000+0  23323-1 0  9990
2 84232  20.3150 218.1952 6529429 165.5116 230.3283  3.22641546107778
UNKNOWN                 
1 84236U          26069.06002904  .00000953  00000+0  64621-2 0  9994
2 84236   9.2919 296.2005 6890329 171.4122 213.1207  2.62672294116277
UNKNOWN                 
1 84292U          26077.93878347  .00002774  00000+0  17081-2 0  9994
2 84292  23.8350  27.0511 4552300 111.8110 301.7914  6.22349669234052
UNKNOWN                 
1 84406U          26077.64472344  .00000627  00000+0  34936-2 0  9999
2 84406 101.7205 228.0430 0050508 206.9317 172.6275 12.67508390 61441
UNKNOWN                 
1 84407U          26073.27579041  .00000096  00000+0  36204-2 0  9997
2 84407  19.4455 295.5708 7212770 110.9601 335.2275  2.05800324 77750
UNKNOWN                 
1 84575U          26078.25292516 -.00000174  00000+0 -34439-2 0  9992
2 84575  18.0177 126.1144 7119367  81.6206 346.6757  2.19861276 67587
UNKNOWN                 
1 84932U          26078.44418470  .00000401  00000+0  35703-2 0  9995
2 84932   2.0541 186.0553 6575522 165.7718  24.0372  3.00156184134683
UNKNOWN                 
1 85004U          26078.19423343  .00000887  00000+0  28396-3 0  9992
2 85004  98.4368  52.8917 0045696 231.8334 143.7591 14.41377340644797
UNKNOWN                 
1 85010U          26076.42716587  .00000982  00000+0  10655-2 0  9992
2 85010  99.2461 300.4448 0026889   5.2422 118.1978 13.75282620616934
UNKNOWN                 
1 85015U          26078.64194928  .00000480  00000+0  10065-3 0  9991
2 85015  74.0489 212.7445 0013900  94.3423 265.9333 14.62429087656771
UNKNOWN                 
1 85023U          26078.59672115  .00016651  00000+0  21675-2 0  9998
2 85023  99.8411 120.3523 0001293 129.6693  21.7235 14.80729991643136
UNKNOWN                 
1 85027U          26078.66047466  .00000123  00000+0  19260-3 0  9990
2 85027  66.0404 224.1651 0169538 138.4094 223.0012 13.74290428617932
UNKNOWN                 
1 85047U          26077.91995847  .00009311  00000+0  14865-1 0  9996
2 85047 102.1690  68.5583 0112700 158.7961 201.7887 13.46890307589598
UNKNOWN                 
1 85061U          26077.27511093  .00003204  00000+0  12667-1 0  9991
2 85061 102.4013  74.8586 0270473   4.4916   8.5955 12.77756756567988
UNKNOWN                 
1 85100U          26078.23836029  .00000336  00000+0  11304-3 0  9993
2 85100  74.0459  44.3691 0013842 249.9231 172.4572 14.40803856647240
UNKNOWN                 
1 85106U          26077.76686229  .00000592  00000+0  69384-3 0  9996
2 85106 100.0527 188.3481 0010938 128.1201  26.6950 13.73044857616245
UNKNOWN                 
1 85151U          26078.58190860  .00012882  00000+0  15682-2 0  9994
2 85151  98.3992 312.2415 0006591 184.1294 175.9865 14.83556989493869
UNKNOWN                 
1 85210U          26071.23233994  .00000327  00000+0  34895-3 0  9990
2 85210  99.8618 219.6907 0216482  85.7625  34.8749 13.71673445614422
UNKNOWN                 
1 85217U          26078.47949427  .00002640  00000+0  69712-3 0  9991
2 85217  98.0225 171.5551 0206959 195.5379 163.9394 14.37710345641759
UNKNOWN                 
1 85237U          26075.39643273  .00006156  00000+0  12305-2 0  9992
2 85237  65.5347 328.8804 0516155 344.9747  13.6465 14.02336975621476
UNKNOWN                 
1 85238U          26078.56961398  .00000029  00000+0  59824-4 0  9998
2 85238  99.0690  10.0174 0062516 299.4245 239.9791 13.88362505624271
UNKNOWN                 
1 85246U          26078.25574555  .00001772  00000+0  63917-3 0  9991
2 85246  97.9909  77.7280 0222930  19.6159 341.3429 14.21831213636782
UNKNOWN                 
1 85373U          26078.37364647  .00002141  00000+0  14645-2 0  9998
2 85373 100.4230 132.8538 0050090 344.6625  76.6650 14.00479046625651
UNKNOWN                 
1 85423U          26078.65750000 -.00000079  00000+0  00000+0 0  9993
2 85423   3.7800  67.2600 2430100 180.7100 179.2300  1.39366050    16
UNKNOWN                 
1 85431U          26077.74375397  .00001649  00000+0  37401-3 0  9995
2 85431  29.0671 176.7457 0654992 284.4749  68.4056 13.68295983   449
UNKNOWN                 
1 85448U          26072.61808446 -.00000384  00000+0  00000+0 0  9997
2 85448  41.4606 155.5047 0007289 313.6966 141.3444 15.68404032    03
UNKNOWN                 
1 87014U          26078.43555981  .00002151  00000+0  32987-2 0  9992
2 87014 100.4816  53.0876 0054086   6.8974 145.4657 13.52395835603980
UNKNOWN                 
1 87029U          26078.33522732  .00000758  00000+0  48537-3 0  9995
2 87029  98.7434 115.1411 0080507 340.0242  19.7780 14.04730446606560
UNKNOWN                 
1 87042U          26078.59139357  .00000484  00000+0  31050-3 0  9993
2 87042  98.7003 123.2750 0043998 180.4139 179.7001 14.07291690567584
UNKNOWN                 
1 87051U          26077.59536450  .00001686  00000+0  61288-3 0  9998
2 87051  65.7315  25.7602 0708535  97.3668 270.8404 13.46296060601480
UNKNOWN                 
1 87054U          26078.57014762  .00001754  00000+0  99549-3 0  9994
2 87054 100.0887 334.8879 0013904  77.9962 282.2762 14.11511783629984
UNKNOWN                 
1 87071U          26077.31148718  .00002010  00000+0  75845-3 0  9992
2 87071  61.2235 347.5557 0471540 285.7498  69.2015 13.86718744615738
UNKNOWN                 
1 87129U          26074.73762754  .00000169  00000+0  15561-2 0  9992
2 87129 102.2544 171.8013 0032192 263.3345  96.4054 12.42861300558228
UNKNOWN                 
1 87159U          26077.93533734  .00001248  00000+0  14460-2 0  9990
2 87159  90.3465  72.8621 0103460 333.2182  26.3657 13.66344444569829
UNKNOWN                 
1 87163U          26078.04003551  .00004376  00000+0  12843-2 0  9995
2 87163  65.6032 358.6644 0646429  21.5705 341.1301 13.64609860590657
UNKNOWN                 
1 87164U          26077.66460285  .00004935  00000+0  98321-3 0  9991
2 87164  65.2034  48.8829 0107014  10.2982 350.0274 14.59398209649765
UNKNOWN                 
1 87204U          26078.57682181  .00001678  00000+0  66135-3 0  9997
2 87204  98.5311 302.4604 0046587  40.0746 320.3858 14.29847249639276
UNKNOWN                 
1 87211U          26078.26705561  .00002391  00000+0  65631-3 0  9992
2 87211  99.0867  90.0704 0051660 230.9622 143.9650 14.47315873721733
UNKNOWN                 
1 87214U          26077.74182949  .00001426  00000+0  12997-2 0  9990
2 87214 100.3317  90.8590 0067316   8.0889 352.1332 13.84313832613528
UNKNOWN                 
1 87237U          26078.43242191  .00000298  00000+0  25736-3 0  9990
2 87237  99.2394 138.6446 0103105  23.4741 352.6088 13.91849296625218
UNKNOWN                 
1 87239U          26076.49939575  .00006913  00000+0  16253-2 0  9998
2 87239  82.8763   2.2495 0021407  91.6728 268.6924 14.54150531641630
UNKNOWN                 
1 87245U          26078.61529635  .00002731  00000+0  58035-3 0  9992
2 87245  65.6393 148.5192 0424944  72.5372  71.1737 14.16812716627922
UNKNOWN                 
1 87271U          26078.16415962  .00006728  00000+0  11968-2 0  9991
2 87271  65.7567 336.8183 0420135  22.6721 339.2330 14.23356015626085
UNKNOWN                 
1 87280U          26078.37325332  .00000313  00000+0  60532-3 0  9991
2 87280  64.6179 356.3542 0126600 242.2312 116.5844 13.48654033546886
UNKNOWN                 
1 87293U          26078.44393202  .00002795  00000+0  54325-3 0  9993
2 87293  65.8946 247.8535 0427826 307.6012  48.6942 14.19746528627714
UNKNOWN                 
1 87300U          26073.43709886  .00001435  00000+0  10112-2 0  9990
2 87300 100.1009  70.1924 0026085  49.6145 310.7287 13.99814165625945
UNKNOWN                 
1 87304U          26078.52373799  .00001103  00000+0  16537-3 0  9999
2 87304  74.0174 131.4230 0016210  73.4627 286.8326 14.75867284660751
UNKNOWN                 
1 87320U          26078.66253241  .00000688  00000+0  45852-3 0  9990
2 87320  66.5915 212.9913 0421962 352.6581   6.8425 13.70483496607020
UNKNOWN                 
1 87334U          26078.51083706  .00013410  00000+0  73387-2 0  9996
2 87334  90.0047 271.7120 0065349 293.8376  65.5968 14.10750154400272
UNKNOWN                 
1 87335U          26078.00893286  .00016255  00000+0  87407-2 0  9991
2 87335  89.9935 267.8779 0084086 275.2987  83.8608 14.10975912400537
UNKNOWN                 
1 87405U          26077.71644646  .00002265  00000+0  15928-2 0  9995
2 87405  82.7534 344.3792 0061238  53.5109 307.1679 13.96843359624556
UNKNOWN                 
1 87426U          26077.50733978  .00003383  00000+0  12901-2 0  9992
2 87426  65.7821  74.6637 0069947 251.8849 192.8638 14.30737571636283
UNKNOWN                 
1 87448U          26078.55843248  .00001209  00000+0  99209-3 0  9996
2 87448 100.4500 302.0474 0063483 314.0194  45.5740 13.90913418622698
UNKNOWN                 
1 87456U          26075.62056912  .00003349  00000+0  48820-3 0  9994
2 87456  65.7652 201.3609 0510769 316.9482  39.2680 14.15265662624777
UNKNOWN                 
1 87517U          26078.24982822  .00001284  00000+0  37407-3 0  9996
2 87517  65.8264 357.4816 0673245 260.5406 178.0199 13.62157412606059
UNKNOWN                 
1 87541U          26060.83200558  .00000129  00000+0  33234-3 0  9999
2 87541  99.6988 275.7697 0060247  71.0193 353.3780 13.35612304592596
UNKNOWN                 
1 87553U          26076.53161036  .00001605  00000+0  52113-3 0  9990
2 87553  65.6680 126.3618 0690421 185.4567 173.8680 13.54195836604082
UNKNOWN                 
1 87557U          26078.39540765  .00003658  00000+0  80453-2 0  9997
2 87557 101.7768 311.6977 0052891 165.5207 194.7437 13.28645776577866
